<?xml version="1.0" encoding="UTF-8"?>
<ndm xmlns:xsi="http://www.w3.org/2001/XMLSchema-instance" xsi:noNamespaceSchemaLocation="https://sanaregistry.org/r/ndmxml_unqualified/ndmxml-2.0.0-master-2.0.xsd">
<omm id="CCSDS_OMM_VERS" version="2.0">
<header><CREATION_DATE/><ORIGINATOR/></header><body><segment><metadata><OBJECT_NAME>GLOBALSTAR M045 [-]</OBJECT_NAME><OBJECT_ID>1999-019A</OBJECT_ID><CENTER_NAME>EARTH</CENTER_NAME><REF_FRAME>TEME</REF_FRAME><TIME_SYSTEM>UTC</TIME_SYSTEM><MEAN_ELEMENT_THEORY>SGP4</MEAN_ELEMENT_THEORY></metadata><data><meanElements><EPOCH>2023-10-28T11:10:48.647712</EPOCH><MEAN_MOTION>12.27017963</MEAN_MOTION><ECCENTRICITY>.0001543</ECCENTRICITY><INCLINATION>51.9965</INCLINATION><RA_OF_ASC_NODE>208.8409</RA_OF_ASC_NODE><ARG_OF_PERICENTER>81.5116</ARG_OF_PERICENTER><MEAN_ANOMALY>90.3949</MEAN_ANOMALY></meanElements><tleParameters><EPHEMERIS_TYPE>0</EPHEMERIS_TYPE><CLASSIFICATION_TYPE>U</CLASSIFICATION_TYPE><NORAD_CAT_ID>25676</NORAD_CAT_ID><ELEMENT_SET_NO>999</ELEMENT_SET_NO><REV_AT_EPOCH>12001</REV_AT_EPOCH><BSTAR>-.92986E-5</BSTAR><MEAN_MOTION_DOT>-.95E-6</MEAN_MOTION_DOT><MEAN_MOTION_DDOT>0</MEAN_MOTION_DDOT></tleParameters></data></segment></body></omm>
<omm id="CCSDS_OMM_VERS" version="2.0">
<header><CREATION_DATE/><ORIGINATOR/></header><body><segment><metadata><OBJECT_NAME>GLOBALSTAR M019 [-]</OBJECT_NAME><OBJECT_ID>1999-019B</OBJECT_ID><CENTER_NAME>EARTH</CENTER_NAME><REF_FRAME>TEME</REF_FRAME><TIME_SYSTEM>UTC</TIME_SYSTEM><MEAN_ELEMENT_THEORY>SGP4</MEAN_ELEMENT_THEORY></metadata><data><meanElements><EPOCH>2023-10-28T06:36:26.178336</EPOCH><MEAN_MOTION>12.13849646</MEAN_MOTION><ECCENTRICITY>.0000833</ECCENTRICITY><INCLINATION>51.9886</INCLINATION><RA_OF_ASC_NODE>297.6934</RA_OF_ASC_NODE><ARG_OF_PERICENTER>167.8060</ARG_OF_PERICENTER><MEAN_ANOMALY>205.2612</MEAN_ANOMALY></meanElements><tleParameters><EPHEMERIS_TYPE>0</EPHEMERIS_TYPE><CLASSIFICATION_TYPE>U</CLASSIFICATION_TYPE><NORAD_CAT_ID>25677</NORAD_CAT_ID><ELEMENT_SET_NO>999</ELEMENT_SET_NO><REV_AT_EPOCH>11253</REV_AT_EPOCH><BSTAR>.19134E-3</BSTAR><MEAN_MOTION_DOT>-.72E-6</MEAN_MOTION_DOT><MEAN_MOTION_DDOT>0</MEAN_MOTION_DDOT></tleParameters></data></segment></body></omm>
<omm id="CCSDS_OMM_VERS" version="2.0">
<header><CREATION_DATE/><ORIGINATOR/></header><body><segment><metadata><OBJECT_NAME>GLOBALSTAR M044 [-]</OBJECT_NAME><OBJECT_ID>1999-019C</OBJECT_ID><CENTER_NAME>EARTH</CENTER_NAME><REF_FRAME>TEME</REF_FRAME><TIME_SYSTEM>UTC</TIME_SYSTEM><MEAN_ELEMENT_THEORY>SGP4</MEAN_ELEMENT_THEORY></metadata><data><meanElements><EPOCH>2023-10-28T08:38:26.736288</EPOCH><MEAN_MOTION>11.90226002</MEAN_MOTION><ECCENTRICITY>.0006228</ECCENTRICITY><INCLINATION>51.9948</INCLINATION><RA_OF_ASC_NODE>174.0292</RA_OF_ASC_NODE><ARG_OF_PERICENTER>335.0944</ARG_OF_PERICENTER><MEAN_ANOMALY>196.8837</MEAN_ANOMALY></meanElements><tleParameters><EPHEMERIS_TYPE>0</EPHEMERIS_TYPE><CLASSIFICATION_TYPE>U</CLASSIFICATION_TYPE><NORAD_CAT_ID>25678</NORAD_CAT_ID><ELEMENT_SET_NO>999</ELEMENT_SET_NO><REV_AT_EPOCH>10013</REV_AT_EPOCH><BSTAR>.10879E-2</BSTAR><MEAN_MOTION_DOT>-.6E-7</MEAN_MOTION_DOT><MEAN_MOTION_DDOT>0</MEAN_MOTION_DDOT></tleParameters></data></segment></body></omm>
<omm id="CCSDS_OMM_VERS" version="2.0">
<header><CREATION_DATE/><ORIGINATOR/></header><body><segment><metadata><OBJECT_NAME>GLOBALSTAR M042 [-]</OBJECT_NAME><OBJECT_ID>1999-019D</OBJECT_ID><CENTER_NAME>EARTH</CENTER_NAME><REF_FRAME>TEME</REF_FRAME><TIME_SYSTEM>UTC</TIME_SYSTEM><MEAN_ELEMENT_THEORY>SGP4</MEAN_ELEMENT_THEORY></metadata><data><meanElements><EPOCH>2023-10-28T10:39:43.422912</EPOCH><MEAN_MOTION>12.22049633</MEAN_MOTION><ECCENTRICITY>.0003141</ECCENTRICITY><INCLINATION>52.0017</INCLINATION><RA_OF_ASC_NODE>298.3479</RA_OF_ASC_NODE><ARG_OF_PERICENTER>143.1149</ARG_OF_PERICENTER><MEAN_ANOMALY>23.4039</MEAN_ANOMALY></meanElements><tleParameters><EPHEMERIS_TYPE>0</EPHEMERIS_TYPE><CLASSIFICATION_TYPE>U</CLASSIFICATION_TYPE><NORAD_CAT_ID>25679</NORAD_CAT_ID><ELEMENT_SET_NO>999</ELEMENT_SET_NO><REV_AT_EPOCH>11217</REV_AT_EPOCH><BSTAR>.21798E-3</BSTAR><MEAN_MOTION_DOT>-.69E-6</MEAN_MOTION_DOT><MEAN_MOTION_DDOT>0</MEAN_MOTION_DDOT></tleParameters></data></segment></body></omm>
<omm id="CCSDS_OMM_VERS" version="2.0">
<header><CREATION_DATE/><ORIGINATOR/></header><body><segment><metadata><OBJECT_NAME>GLOBALSTAR M025 [-]</OBJECT_NAME><OBJECT_ID>1999-031A</OBJECT_ID><CENTER_NAME>EARTH</CENTER_NAME><REF_FRAME>TEME</REF_FRAME><TIME_SYSTEM>UTC</TIME_SYSTEM><MEAN_ELEMENT_THEORY>SGP4</MEAN_ELEMENT_THEORY></metadata><data><meanElements><EPOCH>2023-10-28T05:07:52.910112</EPOCH><MEAN_MOTION>11.22546791</MEAN_MOTION><ECCENTRICITY>.0001011</ECCENTRICITY><INCLINATION>51.9789</INCLINATION><RA_OF_ASC_NODE>104.5054</RA_OF_ASC_NODE><ARG_OF_PERICENTER>170.2540</ARG_OF_PERICENTER><MEAN_ANOMALY>0.3992</MEAN_ANOMALY></meanElements><tleParameters><EPHEMERIS_TYPE>0</EPHEMERIS_TYPE><CLASSIFICATION_TYPE>U</CLASSIFICATION_TYPE><NORAD_CAT_ID>25770</NORAD_CAT_ID><ELEMENT_SET_NO>999</ELEMENT_SET_NO><REV_AT_EPOCH>41455</REV_AT_EPOCH><BSTAR>.21315E-3</BSTAR><MEAN_MOTION_DOT>-.61E-6</MEAN_MOTION_DOT><MEAN_MOTION_DDOT>0</MEAN_MOTION_DDOT></tleParameters></data></segment></body></omm>
<omm id="CCSDS_OMM_VERS" version="2.0">
<header><CREATION_DATE/><ORIGINATOR/></header><body><segment><metadata><OBJECT_NAME>GLOBALSTAR M049 [-]</OBJECT_NAME><OBJECT_ID>1999-031B</OBJECT_ID><CENTER_NAME>EARTH</CENTER_NAME><REF_FRAME>TEME</REF_FRAME><TIME_SYSTEM>UTC</TIME_SYSTEM><MEAN_ELEMENT_THEORY>SGP4</MEAN_ELEMENT_THEORY></metadata><data><meanElements><EPOCH>2023-10-28T04:22:25.646592</EPOCH><MEAN_MOTION>11.12102479</MEAN_MOTION><ECCENTRICITY>.0003854</ECCENTRICITY><INCLINATION>51.9843</INCLINATION><RA_OF_ASC_NODE>109.2884</RA_OF_ASC_NODE><ARG_OF_PERICENTER>92.6148</ARG_OF_PERICENTER><MEAN_ANOMALY>267.5090</MEAN_ANOMALY></meanElements><tleParameters><EPHEMERIS_TYPE>0</EPHEMERIS_TYPE><CLASSIFICATION_TYPE>U</CLASSIFICATION_TYPE><NORAD_CAT_ID>25771</NORAD_CAT_ID><ELEMENT_SET_NO>999</ELEMENT_SET_NO><REV_AT_EPOCH>5089</REV_AT_EPOCH><BSTAR>.2423E-2</BSTAR><MEAN_MOTION_DOT>.5E-7</MEAN_MOTION_DOT><MEAN_MOTION_DDOT>0</MEAN_MOTION_DDOT></tleParameters></data></segment></body></omm>
<omm id="CCSDS_OMM_VERS" version="2.0">
<header><CREATION_DATE/><ORIGINATOR/></header><body><segment><metadata><OBJECT_NAME>GLOBALSTAR M047 [-]</OBJECT_NAME><OBJECT_ID>1999-031C</OBJECT_ID><CENTER_NAME>EARTH</CENTER_NAME><REF_FRAME>TEME</REF_FRAME><TIME_SYSTEM>UTC</TIME_SYSTEM><MEAN_ELEMENT_THEORY>SGP4</MEAN_ELEMENT_THEORY></metadata><data><meanElements><EPOCH>2023-10-28T07:17:20.787648</EPOCH><MEAN_MOTION>11.31916783</MEAN_MOTION><ECCENTRICITY>.0015777</ECCENTRICITY><INCLINATION>51.9804</INCLINATION><RA_OF_ASC_NODE>163.1055</RA_OF_ASC_NODE><ARG_OF_PERICENTER>319.9644</ARG_OF_PERICENTER><MEAN_ANOMALY>39.9999</MEAN_ANOMALY></meanElements><tleParameters><EPHEMERIS_TYPE>0</EPHEMERIS_TYPE><CLASSIFICATION_TYPE>U</CLASSIFICATION_TYPE><NORAD_CAT_ID>25772</NORAD_CAT_ID><ELEMENT_SET_NO>999</ELEMENT_SET_NO><REV_AT_EPOCH>40340</REV_AT_EPOCH><BSTAR>.10343E-2</BSTAR><MEAN_MOTION_DOT>-.32E-6</MEAN_MOTION_DOT><MEAN_MOTION_DDOT>0</MEAN_MOTION_DDOT></tleParameters></data></segment></body></omm>
<omm id="CCSDS_OMM_VERS" version="2.0">
<header><CREATION_DATE/><ORIGINATOR/></header><body><segment><metadata><OBJECT_NAME>GLOBALSTAR M052 [-]</OBJECT_NAME><OBJECT_ID>1999-031D</OBJECT_ID><CENTER_NAME>EARTH</CENTER_NAME><REF_FRAME>TEME</REF_FRAME><TIME_SYSTEM>UTC</TIME_SYSTEM><MEAN_ELEMENT_THEORY>SGP4</MEAN_ELEMENT_THEORY></metadata><data><meanElements><EPOCH>2023-10-28T12:05:18.435840</EPOCH><MEAN_MOTION>11.15046405</MEAN_MOTION><ECCENTRICITY>.0001784</ECCENTRICITY><INCLINATION>51.9854</INCLINATION><RA_OF_ASC_NODE>225.6394</RA_OF_ASC_NODE><ARG_OF_PERICENTER>277.0517</ARG_OF_PERICENTER><MEAN_ANOMALY>254.4786</MEAN_ANOMALY></meanElements><tleParameters><EPHEMERIS_TYPE>0</EPHEMERIS_TYPE><CLASSIFICATION_TYPE>U</CLASSIFICATION_TYPE><NORAD_CAT_ID>25773</NORAD_CAT_ID><ELEMENT_SET_NO>999</ELEMENT_SET_NO><REV_AT_EPOCH>41183</REV_AT_EPOCH><BSTAR>-.13742E-2</BSTAR><MEAN_MOTION_DOT>-.107E-5</MEAN_MOTION_DOT><MEAN_MOTION_DDOT>0</MEAN_MOTION_DDOT></tleParameters></data></segment></body></omm>

</ndm>
