GLOBALSTAR M045 [-]     
1 25676U 99019A   23301.46584083 -.00000095  00000+0 -92986-5 0  9995
2 25676  51.9965 208.8409 0001543  81.5116  90.3949 12.27017963120015
GLOBALSTAR M019 [-]     
1 25677U 99019B   23301.27530299 -.00000072  00000+0  19134-3 0  9991
2 25677  51.9886 297.6934 0000833 167.8060 205.2612 12.13849646112532
GLOBALSTAR M044 [-]     
1 25678U 99019C   23301.36003167 -.00000006  00000+0  10879-2 0  9994
2 25678  51.9948 174.0292 0006228 335.0944 196.8837 11.90226002100137
GLOBALSTAR M042 [-]     
1 25679U 99019D   23301.44425258 -.00000069  00000+0  21798-3 0  9995
2 25679  52.0017 298.3479 0003141 143.1149  23.4039 12.22049633112175
GLOBALSTAR M025 [-]     
1 25770U 99031A   23301.21380683 -.00000061  00000+0  21315-3 0  9995
2 25770  51.9789 104.5054 0001011 170.2540   0.3992 11.22546791414553
GLOBALSTAR M049 [-]     
1 25771U 99031B   23301.18224128  .00000005  00000+0  24230-2 0  9998
2 25771  51.9843 109.2884 0003854  92.6148 267.5090 11.12102479 50895
GLOBALSTAR M047 [-]     
1 25772U 99031C   23301.30371282 -.00000032  00000+0  10343-2 0  9998
2 25772  51.9804 163.1055 0015777 319.9644  39.9999 11.31916783403405
GLOBALSTAR M052 [-]     
1 25773U 99031D   23301.50368560 -.00000107  00000+0 -13742-2 0  9996
2 25773  51.9854 225.6394 0001784 277.0517 254.4786 11.15046405411838
